{"type": "FeatureCollection", "features": [ {"type": "Feature", "properties": {"norad_id": 66915, "name": "HULIANWANG DIGUI-105", "group": "last-30-days", "lat": 43.20583701690064, "lon": -123.41438547044307, "alt_km": 880.6697368924197, "timestamp": "2025-12-14T20:40:30.517730+00:00", "meta": {"OBJECT_NAME": "HULIANWANG DIGUI-105", "OBJECT_ID": "2025-285A", "EPOCH": "2025-12-14T08:09:41.298048", "MEAN_MOTION": 14.03715738, "ECCENTRICITY": 0.00079476, "INCLINATION": 50.0042, "RA_OF_ASC_NODE": 110.7555, "ARG_OF_PERICENTER": 288.0635, "MEAN_ANOMALY": 71.9403, "EPHEMERIS_TYPE": 0, "CLASSIFICATION_TYPE": "U", "NORAD_CAT_ID": 66915, "ELEMENT_SET_NO": 999, "REV_AT_EPOCH": 113, "BSTAR": 0.00013268831, "MEAN_MOTION_DOT": 5.9e-07, "MEAN_MOTION_DDOT": 0}, "tle": {"line1": "1 66915U 25285A   25348.34006132  .00000059  00000+0  13269-3 0  9997", "line2": "2 66915  50.0042 110.7555 0007947 288.0635  71.9403 14.03715738  1131"}}, "geometry": {"type": "Point", "coordinates": [-123.41438547044307, 43.20583701690064]}}, {"type": "Feature", "properties": {"norad_id": 66916, "name": "HULIANWANG DIGUI-106", "group": "last-30-days", "lat": 34.57357129499409, "lon": -106.74427311621787, "alt_km": 876.8391214686244, "timestamp": "2025-12-14T20:40:30.517740+00:00", "meta": {"OBJECT_NAME": "HULIANWANG DIGUI-106", "OBJECT_ID": "2025-285B", "EPOCH": "2025-12-14T08:05:51.629568", "MEAN_MOTION": 14.04835051, "ECCENTRICITY": 0.00069679, "INCLINATION": 50.0052, "RA_OF_ASC_NODE": 110.7424, "ARG_OF_PERICENTER": 281.6694, "MEAN_ANOMALY": 78.3429, "EPHEMERIS_TYPE": 0, "CLASSIFICATION_TYPE": "U", "NORAD_CAT_ID": 66916, "ELEMENT_SET_NO": 999, "REV_AT_EPOCH": 113, "BSTAR": 1.7432928e-05, "MEAN_MOTION_DOT": -1.24e-06, "MEAN_MOTION_DDOT": 0}, "tle": {"line1": "1 66916U 25285B   25348.33740312 -.00000124  00000+0  17433-4 0  9994", "line2": "2 66916  50.0052 110.7424 0006967 281.6694  78.3429 14.04835051  1134"}}, "geometry": {"type": "Point", "coordinates": [-106.74427311621787, 34.57357129499409]}}, {"type": "Feature", "properties": {"norad_id": 66917, "name": "HULIANWANG DIGUI-107", "group": "last-30-days", "lat": 31.231761018817142, "lon": -102.00117145337883, "alt_km": 876.9686224524676, "timestamp": "2025-12-14T20:40:30.517750+00:00", "meta": {"OBJECT_NAME": "HULIANWANG DIGUI-107", "OBJECT_ID": "2025-285C", "EPOCH": "2025-12-14T08:04:37.661664", "MEAN_MOTION": 14.0529373, "ECCENTRICITY": 0.0008308, "INCLINATION": 50.0065, "RA_OF_ASC_NODE": 110.7408, "ARG_OF_PERICENTER": 294.2783, "MEAN_ANOMALY": 65.7254, "EPHEMERIS_TYPE": 0, "CLASSIFICATION_TYPE": "U", "NORAD_CAT_ID": 66917, "ELEMENT_SET_NO": 999, "REV_AT_EPOCH": 113, "BSTAR": 0.00014115221, "MEAN_MOTION_DOT": 7.8e-07, "MEAN_MOTION_DDOT": 0}, "tle": {"line1": "1 66917U 25285C   25348.33654701  .00000078  00000+0  14115-3 0  9991", "line2": "2 66917  50.0065 110.7408 0008308 294.2783  65.7254 14.05293730  1130"}}, "geometry": {"type": "Point", "coordinates": [-102.00117145337883, 31.231761018817142]}}, {"type": "Feature", "properties": {"norad_id": 66918, "name": "HULIANWANG DIGUI-108", "group": "last-30-days", "lat": 28.700622857698406, "lon": -98.7691240888819, "alt_km": 875.030841339254, "timestamp": "2025-12-14T20:40:30.517760+00:00", "meta": {"OBJECT_NAME": "HULIANWANG DIGUI-108", "OBJECT_ID": "2025-285D", "EPOCH": "2025-12-14T08:03:37.369152", "MEAN_MOTION": 14.05417522, "ECCENTRICITY": 0.0006314, "INCLINATION": 50.0089, "RA_OF_ASC_NODE": 110.7358, "ARG_OF_PERICENTER": 283.2589, "MEAN_ANOMALY": 76.7612, "EPHEMERIS_TYPE": 0, "CLASSIFICATION_TYPE": "U", "NORAD_CAT_ID": 66918, "ELEMENT_SET_NO": 999, "REV_AT_EPOCH": 113, "BSTAR": 0.00014847105, "MEAN_MOTION_DOT": 9e-07, "MEAN_MOTION_DDOT": 0}, "tle": {"line1": "1 66918U 25285D   25348.33584918  .00000090  00000+0  14847-3 0  9990", "line2": "2 66918  50.0089 110.7358 0006314 283.2589  76.7612 14.05417522  1135"}}, "geometry": {"type": "Point", "coordinates": [-98.7691240888819, 28.700622857698406]}}, {"type": "Feature", "properties": {"norad_id": 66919, "name": "HULIANWANG DIGUI-109", "group": "last-30-days", "lat": 27.965292092148257, "lon": -97.88012689447949, "alt_km": 875.668881030012, "timestamp": "2025-12-14T20:40:30.517770+00:00", "meta": {"OBJECT_NAME": "HULIANWANG DIGUI-109", "OBJECT_ID": "2025-285E", "EPOCH": "2025-12-14T08:03:28.700640", "MEAN_MOTION": 14.05717696, "ECCENTRICITY": 0.00078921, "INCLINATION": 50.0064, "RA_OF_ASC_NODE": 110.7355, "ARG_OF_PERICENTER": 297.0727, "MEAN_ANOMALY": 62.9372, "EPHEMERIS_TYPE": 0, "CLASSIFICATION_TYPE": "U", "NORAD_CAT_ID": 66919, "ELEMENT_SET_NO": 999, "REV_AT_EPOCH": 113, "BSTAR": 0.00015709328, "MEAN_MOTION_DOT": 1.06e-06, "MEAN_MOTION_DDOT": 0}, "tle": {"line1": "1 66919U 25285E   25348.33574885  .00000106  00000+0  15709-3 0  9999", "line2": "2 66919  50.0064 110.7355 0007892 297.0727  62.9372 14.05717696  1130"}}, "geometry": {"type": "Point", "coordinates": [-97.88012689447949, 27.965292092148257]}}, {"type": "Feature", "properties": {"norad_id": 66920, "name": "HULIANWANG DIGUI-110", "group": "last-30-days", "lat": 25.14512645814059, "lon": -94.61853648165562, "alt_km": 874.0558204352374, "timestamp": "2025-12-14T20:40:30.517781+00:00", "meta": {"OBJECT_NAME": "HULIANWANG DIGUI-110", "OBJECT_ID": "2025-285F", "EPOCH": "2025-12-14T08:02:24.203040", "MEAN_MOTION": 14.05851874, "ECCENTRICITY": 0.00058537, "INCLINATION": 50.0097, "RA_OF_ASC_NODE": 110.7358, "ARG_OF_PERICENTER": 293.8936, "MEAN_ANOMALY": 66.1355, "EPHEMERIS_TYPE": 0, "CLASSIFICATION_TYPE": "U", "NORAD_CAT_ID": 66920, "ELEMENT_SET_NO": 999, "REV_AT_EPOCH": 113, "BSTAR": 0.00014216705, "MEAN_MOTION_DOT": 8.2e-07, "MEAN_MOTION_DDOT": 0}, "tle": {"line1": "1 66920U 25285F   25348.33500235  .00000082  00000+0  14217-3 0  9995", "line2": "2 66920  50.0097 110.7358 0005853 293.8936  66.1355 14.05851874  1136"}}, "geometry": {"type": "Point", "coordinates": [-94.61853648165562, 25.14512645814059]}}, {"type": "Feature", "properties": {"norad_id": 66921, "name": "HULIANWANG DIGUI-111", "group": "last-30-days", "lat": 24.412645888150216, "lon": -93.80779360029594, "alt_km": 874.9942238306394, "timestamp": "2025-12-14T20:40:30.517793+00:00", "meta": {"OBJECT_NAME": "HULIANWANG DIGUI-111", "OBJECT_ID": "2025-285G", "EPOCH": "2025-12-14T08:02:07.463904", "MEAN_MOTION": 14.05885577, "ECCENTRICITY": 0.00069976, "INCLINATION": 50.0112, "RA_OF_ASC_NODE": 110.7371, "ARG_OF_PERICENTER": 300.3369, "MEAN_ANOMALY": 59.6844, "EPHEMERIS_TYPE": 0, "CLASSIFICATION_TYPE": "U", "NORAD_CAT_ID": 66921, "ELEMENT_SET_NO": 999, "REV_AT_EPOCH": 113, "BSTAR": 0.00014785681, "MEAN_MOTION_DOT": 9.1e-07, "MEAN_MOTION_DDOT": 0}, "tle": {"line1": "1 66921U 25285G   25348.33480861  .00000091  00000+0  14786-3 0  9999", "line2": "2 66921  50.0112 110.7371 0006997 300.3369  59.6844 14.05885577  1131"}}, "geometry": {"type": "Point", "coordinates": [-93.80779360029594, 24.412645888150216]}}, {"type": "Feature", "properties": {"norad_id": 66922, "name": "HULIANWANG DIGUI-112", "group": "last-30-days", "lat": 21.895378258277727, "lon": -91.14222359477735, "alt_km": 875.0690520426851, "timestamp": "2025-12-14T20:40:30.517803+00:00", "meta": {"OBJECT_NAME": "HULIANWANG DIGUI-112", "OBJECT_ID": "2025-285H", "EPOCH": "2025-12-14T08:01:11.368704", "MEAN_MOTION": 14.06001185, "ECCENTRICITY": 0.00069588, "INCLINATION": 50.0087, "RA_OF_ASC_NODE": 110.7289, "ARG_OF_PERICENTER": 306.6717, "MEAN_ANOMALY": 53.3548, "EPHEMERIS_TYPE": 0, "CLASSIFICATION_TYPE": "U", "NORAD_CAT_ID": 66922, "ELEMENT_SET_NO": 999, "REV_AT_EPOCH": 113, "BSTAR": 0.00014745774, "MEAN_MOTION_DOT": 9.1e-07, "MEAN_MOTION_DDOT": 0}, "tle": {"line1": "1 66922U 25285H   25348.33415936  .00000091  00000+0  14746-3 0  9997", "line2": "2 66922  50.0087 110.7289 0006958 306.6717  53.3548 14.06001185  1132"}}, "geometry": {"type": "Point", "coordinates": [-91.14222359477735, 21.895378258277727]}}, {"type": "Feature", "properties": {"norad_id": 66923, "name": "HULIANWANG DIGUI-113", "group": "last-30-days", "lat": 20.60979008591187, "lon": -89.8300440168454, "alt_km": 873.8429330840181, "timestamp": "2025-12-14T20:40:30.517813+00:00", "meta": {"OBJECT_NAME": "HULIANWANG DIGUI-113", "OBJECT_ID": "2025-285J", "EPOCH": "2025-12-14T08:00:43.104672", "MEAN_MOTION": 14.06057103, "ECCENTRICITY": 0.0005423, "INCLINATION": 50.0085, "RA_OF_ASC_NODE": 110.7283, "ARG_OF_PERICENTER": 301.5227, "MEAN_ANOMALY": 58.5148, "EPHEMERIS_TYPE": 0, "CLASSIFICATION_TYPE": "U", "NORAD_CAT_ID": 66923, "ELEMENT_SET_NO": 999, "REV_AT_EPOCH": 113, "BSTAR": 0.00014434102, "MEAN_MOTION_DOT": 8.6e-07, "MEAN_MOTION_DDOT": 0}, "tle": {"line1": "1 66923U 25285J   25348.33383223  .00000086  00000+0  14434-3 0  9999", "line2": "2 66923  50.0085 110.7283 0005423 301.5227  58.5148 14.06057103  1135"}}, "geometry": {"type": "Point", "coordinates": [-89.8300440168454, 20.60979008591187]}}, {"type": "Feature", "properties": {"norad_id": 66924, "name": "CZ-8A R/B", "group": "last-30-days", "lat": -0.8497231661776518, "lon": -72.16496584236008, "alt_km": 756.1454406375569, "timestamp": "2025-12-14T20:40:30.517823+00:00", "meta": {"OBJECT_NAME": "CZ-8A R/B", "OBJECT_ID": "2025-285K", "EPOCH": "2025-12-14T01:24:06.800256", "MEAN_MOTION": 14.30502477, "ECCENTRICITY": 0.01193292, "INCLINATION": 50.0067, "RA_OF_ASC_NODE": 110.5412, "ARG_OF_PERICENTER": 111.3842, "MEAN_ANOMALY": 249.9855, "EPHEMERIS_TYPE": 0, "CLASSIFICATION_TYPE": "U", "NORAD_CAT_ID": 66924, "ELEMENT_SET_NO": 999, "REV_AT_EPOCH": 111, "BSTAR": 7.5121716e-05, "MEAN_MOTION_DOT": 4.6e-07, "MEAN_MOTION_DDOT": 0}, "tle": {"line1": "1 66924U 25285K   25348.05841204  .00000046  00000+0  75122-4 0  9995", "line2": "2 66924  50.0067 110.5412 0119329 111.3842 249.9855 14.30502477  1114"}}, "geometry": {"type": "Point", "coordinates": [-72.16496584236008, -0.8497231661776518]}}]}